MEAN_MOTION;ECCENTRICITY;INCLINATION;RA_OF_ASC_NODE;ARG_OF_PERICENTER;MEAN_ANOMALY;BSTAR;MEAN_MOTION_DOT;MEAN_MOTION_DDOT;TYPE
14.35349306;0.0002255;86.4009;348.2746;83.1077;277.0376;2.2879E-5;8.5E-7;0;Iridium
14.35349483;0.0002252;86.4009;348.0413;83.2525;276.8927;2.7074E-5;9.7E-7;0;Iridium
14.35349483;0.0002252;86.4009;348.0413;83.2525;276.8927;2.7074E-5;9.7E-7;0;Iridium
14.35349561;0.0002252;86.4009;347.8372;83.3883;276.757;2.6987E-5;9.7E-7;0;Iridium
14.35349675;0.0002243;86.4008;347.6622;83.3167;276.8285;2.9555E-5;1.04E-6;0;Iridium
14.35349771;0.0002243;86.4008;347.4289;83.266;276.8792;2.9434E-5;1.04E-6;0;Iridium
14.3534983;0.0002236;86.4008;347.2539;82.8379;277.3071;2.9591E-5;1.05E-6;0;Iridium
14.35350028;0.0002224;86.4007;346.7581;82.7538;277.3911;3.1096E-5;1.09E-6;0;Iridium
14.35350028;0.0002224;86.4007;346.7581;82.7538;277.3911;3.1096E-5;1.09E-6;0;Iridium
14.35350028;0.0002224;86.4007;346.7581;82.7538;277.3911;3.1096E-5;1.09E-6;0;Iridium
14.35350343;0.0002201;86.4005;346.0288;82.8979;277.2468;3.4262E-5;1.18E-6;0;Iridium
14.35350317;0.0002202;86.4005;345.9414;82.9446;277.2001;3.218E-5;1.12E-6;0;Iridium
14.35350296;0.0002207;86.4004;345.7663;82.9912;277.1535;2.8689E-5;1.02E-6;0;Iridium
14.35350349;0.0002198;86.4004;345.5621;83.0187;277.1259;2.8725E-5;1.02E-6;0;Iridium
14.35350379;0.0002199;86.4003;345.3579;82.8855;277.2591;2.6566E-5;9.6E-7;0;Iridium
14.35350434;0.000219;86.4002;344.9203;82.8304;277.3142;2.279E-5;8.5E-7;0;Iridium
14.35350474;0.0002179;86.4002;344.7453;82.7865;277.3579;2.2355E-5;8.4E-7;0;Iridium
14.35350491;0.0002182;86.4002;344.5119;82.9597;277.1847;1.927E-5;7.5E-7;0;Iridium
14.35350532;0.000218;86.4001;344.3078;82.7558;277.3886;1.8595E-5;7.3E-7;0;Iridium
14.35350532;0.000218;86.4001;344.3078;82.7558;277.3886;1.8595E-5;7.3E-7;0;Iridium
14.35350568;0.000218;86.4;344.0745;82.1504;277.994;1.5959E-5;6.6E-7;0;Iridium
14.35350641;0.000218;86.3999;343.8702;82.3671;277.7773;1.6364E-5;6.7E-7;0;Iridium
14.35350641;0.000218;86.3999;343.8702;82.3671;277.7773;1.6364E-5;6.7E-7;0;Iridium
14.35350708;0.0002171;86.3998;343.666;82.3119;277.8324;1.5905E-5;6.5E-7;0;Iridium
14.35350875;0.0002168;86.3998;343.491;82.3919;277.7523;2.1187E-5;8.1E-7;0;Iridium
14.35350981;0.000216;86.3997;343.2577;82.4296;277.7146;2.1202E-5;8.1E-7;0;Iridium
14.3535121;0.000215;86.3996;342.9951;82.1118;278.0323;2.8851E-5;1.02E-6;0;Iridium
14.3535125;0.0002147;86.3996;342.9076;82.2293;277.9147;2.8489E-5;1.01E-6;0;Iridium
14.35351271;0.0002147;86.3996;342.8492;82.2325;277.9115;2.7808E-5;9.9E-7;0;Iridium
14.35351375;0.0002138;86.3995;342.645;82.2221;277.9218;2.8912E-5;1.03E-6;0;Iridium
14.35351448;0.0002133;86.3995;342.4991;82.1016;278.0422;2.9897E-5;1.05E-6;0;Iridium
14.35351487;0.0002136;86.3995;342.4408;82.1337;278.0102;3.043E-5;1.07E-6;0;Iridium
14.35351487;0.0002136;86.3995;342.4408;82.1337;278.0102;3.043E-5;1.07E-6;0;Iridium
14.35351594;0.0002122;86.3994;342.0032;82.2233;277.9204;2.7716E-5;9.9E-7;0;Iridium
14.35351673;0.0002114;86.3994;341.8573;82.255;277.8887;2.9642E-5;1.05E-6;0;Iridium
14.35351696;0.0002106;86.3993;341.5947;81.9809;278.1626;2.651E-5;9.6E-7;0;Iridium
14.35351733;0.0002097;86.3993;341.4488;82.0456;278.0979;2.7309E-5;9.8E-7;0;Iridium
14.35351705;0.0002086;86.3992;341.1863;81.6422;278.5011;2.2783E-5;8.5E-7;0;Iridium
14.35351773;0.000208;86.3991;341.0112;81.7304;278.4128;2.4462E-5;9.0E-7;0;Iridium
14.35351775;0.0002081;86.3991;340.9819;82.0258;278.1174;2.3873E-5;8.8E-7;0;Iridium
14.35351822;0.0002077;86.399;340.7485;82.116;278.0272;2.3387E-5;8.7E-7;0;Iridium
14.35351866;0.0002077;86.399;340.5442;82.4961;277.6471;2.3359E-5;8.7E-7;0;Iridium
14.35351866;0.0002077;86.399;340.5442;82.4961;277.6471;2.3359E-5;8.7E-7;0;Iridium
14.35352077;0.0002066;86.3987;339.9898;83.0275;277.1156;2.6257E-5;9.5E-7;0;Iridium
14.35352125;0.0002058;86.3987;339.844;82.3772;277.7659;2.6706E-5;9.6E-7;0;Iridium
14.35352155;0.0002055;86.3986;339.7856;82.4321;277.7109;2.734E-5;9.8E-7;0;Iridium
14.35352238;0.0002053;86.3985;339.5813;82.4677;277.6753;2.7741E-5;9.9E-7;0;Iridium
14.35352287;0.0002052;86.3985;339.5229;82.4484;277.6945;2.815E-5;1.0E-6;0;Iridium
14.35352571;0.0002046;86.3984;339.3185;83.7809;276.362;3.5669E-5;1.22E-6;0;Iridium
14.35352571;0.0002046;86.3984;339.3185;83.7809;276.362;3.5669E-5;1.22E-6;0;Iridium
14.35352571;0.0002046;86.3984;339.3185;83.7809;276.362;3.5669E-5;1.22E-6;0;Iridium
14.35353141;0.0002039;86.398;338.5014;83.5762;276.5667;4.1793E-5;1.4E-6;0;Iridium
14.35353141;0.0002039;86.398;338.5014;83.5762;276.5667;4.1793E-5;1.4E-6;0;Iridium
14.3535333;0.000203;86.3978;338.0635;83.791;276.3518;3.7523E-5;1.27E-6;0;Iridium
14.3535333;0.000203;86.3978;338.0635;83.791;276.3518;3.7523E-5;1.27E-6;0;Iridium
14.35353339;0.0002033;86.3977;337.83;83.6394;276.5034;2.8572E-5;1.02E-6;0;Iridium
14.35353356;0.0002025;86.3976;337.6549;83.8665;276.2762;2.4826E-5;9.1E-7;0;Iridium
14.35353503;0.0002011;86.3974;337.2462;84.1265;276.0161;2.3644E-5;8.8E-7;0;Iridium
14.35353544;0.0002012;86.3973;337.0126;84.2758;275.8668;2.1151E-5;8.0E-7;0;Iridium
14.35353666;0.0002009;86.3972;336.8082;84.5848;275.5578;2.3786E-5;8.8E-7;0;Iridium
14.35353722;0.0002009;86.3971;336.6038;84.7794;275.3632;2.2773E-5;8.5E-7;0;Iridium
14.35353871;0.0002012;86.3969;336.0782;85.5059;274.6367;2.4124E-5;8.9E-7;0;Iridium
14.3535397;0.000201;86.3968;335.757;85.2851;274.8574;2.3344E-5;8.7E-7;0;Iridium
14.35353974;0.0002012;86.3968;335.7278;85.3584;274.7842;2.3435E-5;8.7E-7;0;Iridium
14.35354031;0.0002008;86.3966;335.4066;85.0739;275.0687;2.31E-5;8.6E-7;0;Iridium
14.35354022;0.0002014;86.3966;335.3482;85.237;274.9056;2.1716E-5;8.2E-7;0;Iridium
14.35354024;0.0002014;86.3966;335.1146;85.2767;274.8659;1.9845E-5;7.7E-7;0;Iridium
14.35354062;0.0002007;86.3965;334.8226;85.5248;274.6177;1.9524E-5;7.6E-7;0;Iridium
14.35354174;0.0002001;86.3963;334.5013;85.6043;274.5382;1.9884E-5;7.7E-7;0;Iridium
14.35354381;0.000199;86.3961;334.0925;85.7513;274.3911;2.4609E-5;9.0E-7;0;Iridium
14.35354602;0.0001985;86.3959;333.7128;86.1024;274.0399;2.8861E-5;1.03E-6;0;Iridium
14.35354631;0.0001985;86.396;333.6836;86.1337;274.0087;2.9287E-5;1.04E-6;0;Iridium
14.35354873;0.0001984;86.3958;333.2748;86.7938;273.3486;3.1428E-5;1.1E-6;0;Iridium
14.35354886;0.0001982;86.3958;333.2456;86.8319;273.3104;3.1191E-5;1.09E-6;0;Iridium
14.35355135;0.0001976;86.3956;332.8367;86.9402;273.2021;3.2416E-5;1.13E-6;0;Iridium
14.35355394;0.0001975;86.3955;332.4277;87.4532;272.6891;3.3252E-5;1.15E-6;0;Iridium
14.35355616;0.0001975;86.3953;332.048;87.9509;272.1913;3.4051E-5;1.17E-6;0;Iridium
14.35355616;0.0001975;86.3953;332.048;87.9509;272.1913;3.4051E-5;1.17E-6;0;Iridium
14.35355653;0.0001974;86.3953;331.9896;87.8912;272.2511;3.4048E-5;1.17E-6;0;Iridium
14.35355749;0.0001966;86.3953;331.8143;87.8305;272.3116;3.4345E-5;1.18E-6;0;Iridium
14.35355926;0.0001959;86.3951;331.4053;88.1257;272.0163;3.3349E-5;1.15E-6;0;Iridium
14.35355981;0.0001965;86.395;331.2008;88.5085;271.6337;3.1624E-5;1.1E-6;0;Iridium
14.35355992;0.0001966;86.3951;331.1716;88.6159;271.5262;3.1339E-5;1.1E-6;0;Iridium
14.35356149;0.0001972;86.395;330.7625;89.3096;270.8326;3.0723E-5;1.08E-6;0;Iridium
14.35356149;0.0001972;86.395;330.7625;89.3096;270.8326;3.0723E-5;1.08E-6;0;Iridium
14.35356297;0.0001974;86.3949;330.3535;89.6357;270.5066;3.04E-5;1.07E-6;0;Iridium
14.35356305;0.0001974;86.3949;330.3243;89.6729;270.4694;3.0372E-5;1.07E-6;0;Iridium
14.353565;0.0001975;86.3948;329.9446;89.7253;270.4169;3.3078E-5;1.15E-6;0;Iridium
14.353565;0.0001976;86.3948;329.9154;89.7653;270.3769;3.2595E-5;1.13E-6;0;Iridium
14.35356617;0.0001987;86.3947;329.5063;90.4763;269.6661;3.189E-5;1.11E-6;0;Iridium
14.35356724;0.0001989;86.3946;329.1265;90.7644;269.378;3.156E-5;1.1E-6;0;Iridium
14.35356746;0.0001993;86.3945;328.9512;90.7788;269.3637;3.0624E-5;1.08E-6;0;Iridium
14.35356786;0.0002;86.3944;328.6881;91.0678;269.0748;2.7683E-5;9.9E-7;0;Iridium
14.35356781;0.0002;86.3943;328.542;90.744;269.3986;2.6244E-5;9.5E-7;0;Iridium
14.35356811;0.0002003;86.3942;328.279;91.017;269.1256;2.2628E-5;8.5E-7;0;Iridium
14.35356812;0.0002004;86.3942;328.2498;91.0529;269.0897;2.2124E-5;8.3E-7;0;Iridium
14.353569;0.0002016;86.3941;327.8699;91.4269;268.7158;2.0392E-5;7.8E-7;0;Iridium
14.35356915;0.0002016;86.3941;327.8407;91.4327;268.71;2.0325E-5;7.8E-7;0;Iridium
14.35356967;0.0002015;86.3941;327.6945;91.5443;268.5984;2.1281E-5;8.1E-7;0;Iridium
14.35357137;0.0002027;86.394;327.4315;91.8827;268.2602;2.3148E-5;8.6E-7;0;Iridium
14.35357137;0.0002027;86.394;327.4315;91.8827;268.2602;2.3148E-5;8.6E-7;0;Iridium
14.35357201;0.0002027;86.3939;327.2854;91.8783;268.2645;2.4801E-5;9.1E-7;0;Iridium
14.35357367;0.0002036;86.3939;326.9932;91.8007;268.3423;2.5378E-5;9.3E-7;0;Iridium
14.35357515;0.0002042;86.3938;326.6133;92.0317;268.1114;2.4797E-5;9.1E-7;0;Iridium
14.35357561;0.0002043;86.3938;326.4379;92.1446;267.9984;2.3973E-5;8.9E-7;0;Iridium
14.3535766;0.0002053;86.3937;326.1749;92.4963;267.6468;2.2536E-5;8.4E-7;0;Iridium
14.353577;0.0002053;86.3937;326.0287;92.6153;267.5278;2.2684E-5;8.5E-7;0;Iridium
14.35357811;0.0002059;86.3936;325.5611;92.8386;267.3046;1.9554E-5;7.6E-7;0;Iridium
14.35357908;0.0002063;86.3936;325.3273;92.8755;267.2678;2.0478E-5;7.9E-7;0;Iridium
14.35358051;0.0002073;86.3935;324.9181;93.0462;267.0972;2.224E-5;8.4E-7;0;Iridium
14.35358108;0.0002072;86.3935;324.772;93.1826;266.9608;2.4205E-5;8.9E-7;0;Iridium
14.3535825;0.0002083;86.3934;324.5089;93.4642;266.6793;2.6393E-5;9.5E-7;0;Iridium
14.35358257;0.0002083;86.3935;324.4797;93.4809;266.6626;2.6391E-5;9.5E-7;0;Iridium
14.35358335;0.0002085;86.3935;324.3627;93.745;266.3985;3.0241E-5;1.06E-6;0;Iridium
14.35358478;0.0002091;86.3934;324.0704;93.74;266.4035;3.1649E-5;1.11E-6;0;Iridium
14.35358492;0.0002093;86.3934;323.9243;93.9234;266.2202;3.0779E-5;1.08E-6;0;Iridium
14.35358613;0.0002103;86.3934;323.6612;94.0324;266.1113;3.1512E-5;1.1E-6;0;Iridium
14.35358681;0.0002106;86.3934;323.5151;94.1569;265.9868;3.3154E-5;1.15E-6;0;Iridium
14.35358705;0.0002108;86.3934;323.4566;94.1748;265.9689;3.2558E-5;1.13E-6;0;Iridium
